{"type": "FeatureCollection", "features": [ {"type": "Feature", "properties": {"norad_id": 67030, "name": "STARLINK-36138", "group": "last-30-days", "lat": -19.31838103715813, "lon": 89.69293461235327, "alt_km": 344.7357905124072, "timestamp": "2025-12-24T05:51:18.328526+00:00", "meta": {"OBJECT_NAME": "STARLINK-36138", "OBJECT_ID": "2025-294A", "EPOCH": "2025-12-23T22:00:01.999584", "MEAN_MOTION": 15.767706, "ECCENTRICITY": 0.00014293, "INCLINATION": 42.9996, "RA_OF_ASC_NODE": 113.7807, "ARG_OF_PERICENTER": 272.5717, "MEAN_ANOMALY": 359.3043, "EPHEMERIS_TYPE": 0, "CLASSIFICATION_TYPE": "U", "NORAD_CAT_ID": 67030, "ELEMENT_SET_NO": 999, "REV_AT_EPOCH": 190, "BSTAR": -0.013403648, "MEAN_MOTION_DOT": -0.01929747, "MEAN_MOTION_DDOT": 0}, "tle": {"line1": "1 67030U 25294A   25357.91668981 -.01929747  00000+0 -13404-1 0  9991", "line2": "2 67030  42.9996 113.7807 0001429 272.5717 359.3043 15.76770600  1907"}}, "geometry": {"type": "Point", "coordinates": [89.69293461235327, -19.31838103715813]}}, {"type": "Feature", "properties": {"norad_id": 67031, "name": "STARLINK-36150", "group": "last-30-days", "lat": -18.179236789708753, "lon": 91.15235647800114, "alt_km": 344.5081875297901, "timestamp": "2025-12-24T05:51:18.328536+00:00", "meta": {"OBJECT_NAME": "STARLINK-36150", "OBJECT_ID": "2025-294B", "EPOCH": "2025-12-23T22:00:01.999584", "MEAN_MOTION": 15.76781678, "ECCENTRICITY": 0.00014909, "INCLINATION": 42.9997, "RA_OF_ASC_NODE": 113.776, "ARG_OF_PERICENTER": 278.7521, "MEAN_ANOMALY": 354.9104, "EPHEMERIS_TYPE": 0, "CLASSIFICATION_TYPE": "U", "NORAD_CAT_ID": 67031, "ELEMENT_SET_NO": 999, "REV_AT_EPOCH": 210, "BSTAR": -0.013454444, "MEAN_MOTION_DOT": -0.01936951, "MEAN_MOTION_DDOT": 0}, "tle": {"line1": "1 67031U 25294B   25357.91668981 -.01936951  00000+0 -13454-1 0  9992", "line2": "2 67031  42.9997 113.7760 0001490 278.7521 354.9104 15.76781678  2105"}}, "geometry": {"type": "Point", "coordinates": [91.15235647800114, -18.179236789708753]}}, {"type": "Feature", "properties": {"norad_id": 67032, "name": "STARLINK-36131", "group": "last-30-days", "lat": -15.508596125693414, "lon": 94.45180487249061, "alt_km": 344.4450453783975, "timestamp": "2025-12-24T05:51:18.328546+00:00", "meta": {"OBJECT_NAME": "STARLINK-36131", "OBJECT_ID": "2025-294C", "EPOCH": "2025-12-23T22:00:01.999584", "MEAN_MOTION": 15.7676392, "ECCENTRICITY": 0.00016752, "INCLINATION": 42.9998, "RA_OF_ASC_NODE": 113.7655, "ARG_OF_PERICENTER": 271.9469, "MEAN_ANOMALY": 5.875, "EPHEMERIS_TYPE": 0, "CLASSIFICATION_TYPE": "U", "NORAD_CAT_ID": 67032, "ELEMENT_SET_NO": 999, "REV_AT_EPOCH": 190, "BSTAR": -0.013420359, "MEAN_MOTION_DOT": -0.01931562, "MEAN_MOTION_DDOT": 0}, "tle": {"line1": "1 67032U 25294C   25357.91668981 -.01931562  00000+0 -13420-1 0  9999", "line2": "2 67032  42.9998 113.7655 0001675 271.9469   5.8750 15.76763920  1907"}}, "geometry": {"type": "Point", "coordinates": [94.45180487249061, -15.508596125693414]}}, {"type": "Feature", "properties": {"norad_id": 67033, "name": "STARLINK-36137", "group": "last-30-days", "lat": -16.860319719043744, "lon": 92.8018026286281, "alt_km": 344.41212503786664, "timestamp": "2025-12-24T05:51:18.328556+00:00", "meta": {"OBJECT_NAME": "STARLINK-36137", "OBJECT_ID": "2025-294D", "EPOCH": "2025-12-23T22:00:01.999584", "MEAN_MOTION": 15.76771116, "ECCENTRICITY": 0.00015918, "INCLINATION": 42.9996, "RA_OF_ASC_NODE": 113.771, "ARG_OF_PERICENTER": 278.2198, "MEAN_ANOMALY": 357.5093, "EPHEMERIS_TYPE": 0, "CLASSIFICATION_TYPE": "U", "NORAD_CAT_ID": 67033, "ELEMENT_SET_NO": 999, "REV_AT_EPOCH": 190, "BSTAR": -0.013430042, "MEAN_MOTION_DOT": -0.01933224, "MEAN_MOTION_DDOT": 0}, "tle": {"line1": "1 67033U 25294D   25357.91668981 -.01933224  00000+0 -13430-1 0  9998", "line2": "2 67033  42.9996 113.7710 0001591 278.2198 357.5093 15.76771116  1907"}}, "geometry": {"type": "Point", "coordinates": [92.8018026286281, -16.860319719043744]}}, {"type": "Feature", "properties": {"norad_id": 67034, "name": "STARLINK-36140", "group": "last-30-days", "lat": -14.071600213164222, "lon": 96.16696510062553, "alt_km": 344.2621547740864, "timestamp": "2025-12-24T05:51:18.328566+00:00", "meta": {"OBJECT_NAME": "STARLINK-36140", "OBJECT_ID": "2025-294E", "EPOCH": "2025-12-23T22:00:01.999584", "MEAN_MOTION": 15.76747701, "ECCENTRICITY": 0.00017195, "INCLINATION": 42.9996, "RA_OF_ASC_NODE": 113.7604, "ARG_OF_PERICENTER": 276.6639, "MEAN_ANOMALY": 3.374, "EPHEMERIS_TYPE": 0, "CLASSIFICATION_TYPE": "U", "NORAD_CAT_ID": 67034, "ELEMENT_SET_NO": 999, "REV_AT_EPOCH": 190, "BSTAR": -0.013391438, "MEAN_MOTION_DOT": -0.01926795, "MEAN_MOTION_DDOT": 0}, "tle": {"line1": "1 67034U 25294E   25357.91668981 -.01926795  00000+0 -13391-1 0  9990", "line2": "2 67034  42.9996 113.7604 0001719 276.6639   3.3740 15.76747701  1902"}}, "geometry": {"type": "Point", "coordinates": [96.16696510062553, -14.071600213164222]}}, {"type": "Feature", "properties": {"norad_id": 67035, "name": "STARLINK-36085", "group": "last-30-days", "lat": -11.13235740682444, "lon": 99.56893327509448, "alt_km": 344.1845107831641, "timestamp": "2025-12-24T05:51:18.328576+00:00", "meta": {"OBJECT_NAME": "STARLINK-36085", "OBJECT_ID": "2025-294F", "EPOCH": "2025-12-23T22:00:01.999584", "MEAN_MOTION": 15.76720339, "ECCENTRICITY": 0.00018238, "INCLINATION": 43, "RA_OF_ASC_NODE": 113.7489, "ARG_OF_PERICENTER": 273.3834, "MEAN_ANOMALY": 11.1288, "EPHEMERIS_TYPE": 0, "CLASSIFICATION_TYPE": "U", "NORAD_CAT_ID": 67035, "ELEMENT_SET_NO": 999, "REV_AT_EPOCH": 191, "BSTAR": -0.013417932, "MEAN_MOTION_DOT": -0.0192814, "MEAN_MOTION_DDOT": 0}, "tle": {"line1": "1 67035U 25294F   25357.91668981 -.01928140  00000+0 -13418-1 0  9997", "line2": "2 67035  43.0000 113.7489 0001823 273.3834  11.1288 15.76720339  1912"}}, "geometry": {"type": "Point", "coordinates": [99.56893327509448, -11.13235740682444]}}, {"type": "Feature", "properties": {"norad_id": 67036, "name": "STARLINK-36125", "group": "last-30-days", "lat": -12.609170446344924, "lon": 97.87559403418722, "alt_km": 344.2577104268985, "timestamp": "2025-12-24T05:51:18.328588+00:00", "meta": {"OBJECT_NAME": "STARLINK-36125", "OBJECT_ID": "2025-294G", "EPOCH": "2025-12-23T22:00:01.999584", "MEAN_MOTION": 15.76736198, "ECCENTRICITY": 0.00016039, "INCLINATION": 42.9999, "RA_OF_ASC_NODE": 113.7545, "ARG_OF_PERICENTER": 276.079, "MEAN_ANOMALY": 6.1963, "EPHEMERIS_TYPE": 0, "CLASSIFICATION_TYPE": "U", "NORAD_CAT_ID": 67036, "ELEMENT_SET_NO": 999, "REV_AT_EPOCH": 210, "BSTAR": -0.013458863, "MEAN_MOTION_DOT": -0.01934191, "MEAN_MOTION_DDOT": 0}, "tle": {"line1": "1 67036U 25294G   25357.91668981 -.01934191  00000+0 -13459-1 0  9996", "line2": "2 67036  42.9999 113.7545 0001603 276.0790   6.1963 15.76736198  2104"}}, "geometry": {"type": "Point", "coordinates": [97.87559403418722, -12.609170446344924]}}, {"type": "Feature", "properties": {"norad_id": 67037, "name": "STARLINK-35732", "group": "last-30-days", "lat": -9.576203887407598, "lon": 101.32314346520441, "alt_km": 344.11952118936915, "timestamp": "2025-12-24T05:51:18.328598+00:00", "meta": {"OBJECT_NAME": "STARLINK-35732", "OBJECT_ID": "2025-294H", "EPOCH": "2025-12-23T22:00:01.999584", "MEAN_MOTION": 15.76699525, "ECCENTRICITY": 0.00016769, "INCLINATION": 42.9996, "RA_OF_ASC_NODE": 113.7431, "ARG_OF_PERICENTER": 275.0236, "MEAN_ANOMALY": 11.8426, "EPHEMERIS_TYPE": 0, "CLASSIFICATION_TYPE": "U", "NORAD_CAT_ID": 67037, "ELEMENT_SET_NO": 999, "REV_AT_EPOCH": 202, "BSTAR": -0.0134199, "MEAN_MOTION_DOT": -0.0192668, "MEAN_MOTION_DDOT": 0}, "tle": {"line1": "1 67037U 25294H   25357.91668981 -.01926680  00000+0 -13420-1 0  9999", "line2": "2 67037  42.9996 113.7431 0001676 275.0236  11.8426 15.76699525  2020"}}, "geometry": {"type": "Point", "coordinates": [101.32314346520441, -9.576203887407598]}}, {"type": "Feature", "properties": {"norad_id": 67038, "name": "STARLINK-35775", "group": "last-30-days", "lat": -8.172904652079252, "lon": 102.88286677032607, "alt_km": 344.0056888735926, "timestamp": "2025-12-24T05:51:18.328607+00:00", "meta": {"OBJECT_NAME": "STARLINK-35775", "OBJECT_ID": "2025-294J", "EPOCH": "2025-12-23T22:00:01.999584", "MEAN_MOTION": 15.76691681, "ECCENTRICITY": 0.00015876, "INCLINATION": 43, "RA_OF_ASC_NODE": 113.7377, "ARG_OF_PERICENTER": 277.0679, "MEAN_ANOMALY": 11.8981, "EPHEMERIS_TYPE": 0, "CLASSIFICATION_TYPE": "U", "NORAD_CAT_ID": 67038, "ELEMENT_SET_NO": 999, "REV_AT_EPOCH": 202, "BSTAR": -0.0134383, "MEAN_MOTION_DOT": -0.01928286, "MEAN_MOTION_DDOT": 0}, "tle": {"line1": "1 67038U 25294J   25357.91668981 -.01928286  00000+0 -13438-1 0  9993", "line2": "2 67038  43.0000 113.7377 0001587 277.0679  11.8981 15.76691681  2023"}}, "geometry": {"type": "Point", "coordinates": [102.88286677032607, -8.172904652079252]}}, {"type": "Feature", "properties": {"norad_id": 67039, "name": "STARLINK-35705", "group": "last-30-days", "lat": -5.280147013602079, "lon": 106.04639648964749, "alt_km": 343.87041116593446, "timestamp": "2025-12-24T05:51:18.328617+00:00", "meta": {"OBJECT_NAME": "STARLINK-35705", "OBJECT_ID": "2025-294K", "EPOCH": "2025-12-23T22:00:01.999584", "MEAN_MOTION": 15.7666935, "ECCENTRICITY": 0.00015119, "INCLINATION": 42.9997, "RA_OF_ASC_NODE": 113.727, "ARG_OF_PERICENTER": 275.4501, "MEAN_ANOMALY": 17.8208, "EPHEMERIS_TYPE": 0, "CLASSIFICATION_TYPE": "U", "NORAD_CAT_ID": 67039, "ELEMENT_SET_NO": 999, "REV_AT_EPOCH": 191, "BSTAR": -0.01344519, "MEAN_MOTION_DOT": -0.01927395, "MEAN_MOTION_DDOT": 0}, "tle": {"line1": "1 67039U 25294K   25357.91668981 -.01927395  00000+0 -13445-1 0  9992", "line2": "2 67039  42.9997 113.7270 0001511 275.4501  17.8208 15.76669350  1915"}}, "geometry": {"type": "Point", "coordinates": [106.04639648964749, -5.280147013602079]}}]}